[{"OBJECT_NAME":"OBJECT V","OBJECT_ID":"2023-085V","EPOCH":"2026-03-09T21:44:00.165408","MEAN_MOTION":15.30745852,"ECCENTRICITY":0.00069081,"INCLINATION":97.4843,"RA_OF_ASC_NODE":179.3833,"ARG_OF_PERICENTER":71.0503,"MEAN_ANOMALY":289.1485,"EPHEMERIS_TYPE":0,"CLASSIFICATION_TYPE":"U","NORAD_CAT_ID":57023,"ELEMENT_SET_NO":999,"REV_AT_EPOCH":15149,"BSTAR":0.00067780507,"MEAN_MOTION_DOT":0.00020109,"MEAN_MOTION_DDOT":0},{"OBJECT_NAME":"STARLINK-35123","OBJECT_ID":"2025-210N","EPOCH":"2026-03-09T22:00:16.782624","MEAN_MOTION":15.30197912,"ECCENTRICITY":7.525e-5,"INCLINATION":53.1606,"RA_OF_ASC_NODE":306.1779,"ARG_OF_PERICENTER":130.4515,"MEAN_ANOMALY":229.6551,"EPHEMERIS_TYPE":0,"CLASSIFICATION_TYPE":"U","NORAD_CAT_ID":65634,"ELEMENT_SET_NO":999,"REV_AT_EPOCH":2776,"BSTAR":0.0013000146,"MEAN_MOTION_DOT":0.0003834,"MEAN_MOTION_DDOT":0}]
